Organization Name,Street Address,City,Zip Code,Phone,Sunday,Monday,Tuesday,Wednesday,Thursday,Friday,Saturday,Notes
Perfect Peace Music Ministries,2630 Federal Street,Philadelphia,19146,(267) 582-5989,,,11:00 AM - 2:00 PM,,,,,"Open the last Tuesday of the month; Only serves clients in 19146, 19145, 19147; excepts referrals for emergencies; Closed the month of August"
Bryant Baptist Church,1144 S. 19th Street,Philadelphia,19146,(215) 732-4140,,,,11am-1pm,,,,Food pantry.
South Philadelphia Family Service Center (Catholic Social Services),1941 Christian Street,Philadelphia,19146,(215) 724-8550,,,10:00 AM - 12:00 PM,,10:00 AM - 12:00 PM,,,"Individuals/families are able to obtain food every 30 days, they must present proof of address and photo ID."
Church of the Redeemer Baptist,1440 S. 24th Street,Philadelphia,19146,(215) 465-1230 x 110,,10:00 AM - 1:00 PM for emergency referrals,10:00 AM - 1:00 PM for emergency referrals,10:00 AM - 1:00 PM for emergency referrals,10:00 AM - 1:00 PM for emergency referrals,10:00 AM - 1:00 PM for emergency referrals,8:00 AM - 10:00 PM Third Saturday Of The Month,
First Pentecostal Church,1503-05 S. 20th Street,Philadelphia,19146,(215) 468-1711,,4:00 PM - 7:00 PM,,,,,,
South Philadelphia H.O.M.E.S. Inc.,1444 Point Breeze Avenue,Philadelphia,19146,(215) 334-4430,,,1:00 PM - 2:00 PM,,1:00 PM - 2:00 PM,,,Referral preferred but not required. Seniors only
St. Barnabas Bethsaida U.M.C,1814 Wharton Street,Philadelphia,19146,(215) 468-1999,,,,,,,10:00AM - 12:00PM Every 3rd Saturday(food pantry),"Requires ID Preference given to 19146 zip, but will serve others also. Breakfast served prior to food pantry"
St. Gabriel Food Cupboard,2917 Dickinson Street,Philadelphia,19146,(215) 334-2620,,,9:00 AM - 10:30 AM,9:00 AM - 10:30 AM,,9:30 AM - 11:30 AM,,"Requires ID, registration and that you live in district (26th St. to Vare Ave/Gracebury to Morris)"
St. Mary's Episcopal Church,1831 Bainbridge Street,Philadelphia,19146,(215) 985-0360,,,,,,,12:00 PM - 2:00 PM every 3rd,"Pantry open every third Saturday, hot meal served EVERY Saturday from 12:00 PM - 1:00 PM."
St. Paul Chapel Baptist Church,2037 Manton Street,Philadelphia,19146,(215) 467-4158,,,,,,,10:00 AM - 2:00 PM - 4th Sat. of the month,
Tindley Temple,750-762 S. Broad St.,Philadelphia,19146,(215) 735-0442,,11:00 AM - 12:30 PM (soup kitchen),11: AM - 12:00 PM (food pantry),11:00 AM - 12:30 PM (soup kitchen),,11:00 AM - 12:30 PM (soup kitchen),,Open to the public
Metropolitan AME Food Pantry,725 S. 20th Street,Philadelphia,19146,(215) 545-6623,,,,,11:30 AM - 1:15 PM,,,
Living Word Community,142 N. 17th Street,Philadelphia,19103,(215) 563-1322,,,,,,,9:00 AM - 12:00 AM,
Lutheran Church of the Holy Communion,2111 Sansom Street,Philadelphia,19103,(215) 567-3242,,,12:00 PM - 4:00 PM (soup kitchen),11:00 AM -1:00 PM,,12:00 PM - 4:00 PM (soup kitchen),,Food pantry open the second and fourth Wednesday of the month; Always open for emergency food.
St. Mark's Food Cupboard,1625 Locust Street,Philadelphia,19103,(215) 735-1416,,,9:30 AM - 11:00 AM,9:30 AM - 11:00 AM,9:30 AM - 11:00 AM,9:30 AM - 11:00 AM,7:15 AM - 9:00 AM,"Tue-Fri pantry; Sat meal. Referral required. Serves clients in 19102, 19103, 19106, 19107, 19145, 19146, 19147, 19148; Closed one week during the summer. Please do not call after 5pm."
Tenth Presbyterian Church,1701 Delancey St.,Philadelphia,19103,(215) 735-7688,4-6pm (second week of month),,,,,,,Attendance at worship service is a requirement; Open the second week of the month
Old Pine Presbyterian Church,412 Pine St,Philadelphia,19106,(215) 925-8051,,,,,,,12:00PM,Must call first. Only for senior 60+
Old St. Joseph's,321 Willings Alley,Philadelphia,19106,(215) 923-2581,,,11:30 PM -1:30 PM,,11:30 PM -1:30 PM,,11:30 PM -1:30 PM,Referral required
St. Peter's Food Cupboard,313 Pine Street,Philadelphia,19106,(215) 925-5968,,,,,,,8:00 AM - 10:00 AM (food pantry),Open every Saturday.
Broad Street Ministry,315 Broad St.,Philadelphia,19107,(215) 735-4847,,,4:30-5:30 PM,4:30-5:30 PM,11:30 AM-1:15 PM ,,11:45 AM-1:00 PM,Soup Kitchen located across from the Kimmel Center on S. Broad Street.
Mazzoni Center,"21 S. 12th St, 8th Floor",Philadelphia,19107,(215) 563-0652 x 237,,9:30 AM - 4:30 PM,,9:30 AM - 4:30 PM,9:30 AM - 4:30 PM,9:30 AM - 4:30 PM,,Serves clients with HIV. Medical referral required.
Mercy Hospice,334 S. 13th St.,Philadelphia,19107,(215) 545-5153,,12:00 PM - 12:45 PM,12:00 PM - 12:45 PM,12:00 PM - 12:45 PM,12:00 PM - 12:45 PM,12:00 PM - 12:45 PM,,For women and children-Soup Kitchen
St. John's Hospice,1221 Race St.,Philadelphia,19107,(215) 563-7763,,11:30 AM - 1:00 PM,11:30 AM - 1:00 PM,11:30 AM - 1:00 PM,11:30 AM - 1:00 PM,11:30 AM - 1:00 PM,,Men only - open to the public
Sunday Breakfast Rescue Mission,302 N. 13th St.,Philadelphia,19105,(215) 922-6400,7am; 12noon; 6pm (Soup kitchen),7am; 12noon; 6pm (Soup kitchen),7am; 12noon; 6pm (Soup kitchen),7am; 12noon; 6pm (Soup kitchen),7am; 12noon; 6pm (Soup kitchen),7am; 12noon; 6pm (Soup kitchen),7am; 12noon; 6pm (Soup kitchen),Serves three meals every day. Breakfast ? 7 am Lunch ? 12noon Dinner ? 6pm Must be on time; Doors open 30 minutes before meal and close 10 minutes after meal
Youth Health Empowerment Project,"1417 Locust St., 3rd Floor",Philadelphia,19102,(215) 564-6388,,,,,,,,
Christ Church,1020 S. 10th St.,Phila,19147,(215) 301-6962,9:30 AM - 12:30 PM,,,,,,,"No ID required. Can visit weekly. Priority given to 19147, but nobody turned away."
Bridesburg United Methodist Church,2717 Kirkbride Street,Philadelphia,19137,(215) 288-7505,,,,,11:00 AM - 5:00 PM,,,Clients in 19134 or 19137 can visit once per week. Bring bags. Also distributes senior boxes once/month.
Fallsington United Methodist Church,50 LaCross Street,Levittown,19054,(215) 295-1379,,6:00 PM - 8:00 PM,,,,,,Hot meal.
New Creation in Christ Church of the Way,417 S. 56th St.,Philadelphia,19143,(215) 471-1239,,,,11:00 AM - 1 PM Soup Kitchen,,,,Closed May - September
Devereux UMC (Church Lunch Program),2527 W Allegheny Ave,Philadelphia,19132,(215) 221-5050,,,,,,,11am-12:30pm,Open third Saturday of the month. Closed in August. Call for emergencies.
Bethesda Project,907 Hamilton St.,Philadelphia,19123,(215) 236-7864,Breakfast 8:30- 9:30; Lunch Noon-1:00; Dinner 4:30,Breakfast 7:30-8:30; Lunch Noon-1:00; Dinner 5:00-,Breakfast 7:30-8:30; Lunch Noon-1:00; Dinner 5:00-,Breakfast 7:30-8:30; Lunch Noon-1:00; Dinner 5:00-,Breakfast 7:30-8:30; Lunch Noon-1:00; Dinner 5:00-,Breakfast 7:30-8:30; Lunch Noon-1:00; Dinner 5:00-,Breakfast 8:30- 9:30; Lunch Noon-1:00; Dinner 4:30,Meals on major holidays are operated on weekend schedule. Call for emergencies.
Union Baptist Outreach Ministries,1910 Fitzwater St.,Philadelphia,19146,(215) 735-7273,,,,,,11:30 AM - 1:00 PM,,Soup kitchen. Open the last 3 Fridays of the month
Harvest Time Christian Fellowship,4001 North 9th Street,Philadelphia,19140,(215) 225-4823,,6:30 PM - 7:30 PM,,6:30 PM - 7:30 PM,,,10:00 AM - 11:00 AM,Food pantry.
Bethel Deliverance International Church,2901 W. Cheltenham Ave,Wyncote,19095,(215) 885-2585,,6pm-8pm,,,10am-12:30pm,,,Open by appointment; will serve clients from any location
Central Presbyterian Church,900 W. Airy St.,Norristown,19401,(610) 275-2732,,8:30 AM - 11:00 AM,,8:30 AM - 11:00 AM,8:30 AM - 11:00 AM,,,
Morrisville Presbyterian Church,771 N. Pennsylvania Ave.,Morrisville,19067,(215) 295-4191,,,,9:15 AM - 1:15 PM,,,,
Christ of Calvary Covenant,500 S. 61st St.,Philadelphia,19143,(215) 472-5548,,,,12:00PM - 2:00PM,,,12:00PM - 2:00PM,Closed in August. Call for emergencies.
Life Center of Eastern Delaware Valley,6310 Market Street,Upper Darby,19082,(610) 734-5770,7pm - 8pm,7pm - 8pm,7pm - 8pm,7pm - 8pm,7pm - 8pm,7pm- 8pm,7pm - 8pm,Warm Meal
Christ Lutheran Church,7240 Walnut Street,Upper Darby,19082,(610) 352-1610,,8:30 am - 5:00 pm,8:30 am - 5:00 pm,8:30 am - 5:00 pm,8:30 am - 5:00 pm,8:30 am - 5:00 pm,,Must bring ID
Delaware County Family Service Center - Springfield (Catholic Social Services),240 North Bishop Avenue,Springfield,19064,(610) 626-6550,,8:30 A.M.? 4:30 P.M.,8:30 A.M.? 4:30 P.M.,8:30 A.M.? 4:30 P.M.,8:30 A.M.? 4:30 P.M.,8:30 A.M.? 4:30 P.M.,,
Bernardine Center,2625 West 9th Street,Chester,19013,(610) 497-3225,,10am-12 noon,5pm-6:45pm,9am-12 noon,10am-12 noon,10am-12 noon,,Hot Meals 10am-12 noon; baby cupboard open daily; 2nd and 4th Tuesdays of the month
Holy Temple Community Center,363 North 60th Street,Philadelphia,19139,(215) 476-4999,,,11:00 AM - 2:00 PM,,11:00 AM - 2:00 PM,,,
Manna on Main Street,514 W. Main St.,Lansdale,19446,(215) 855-5454,12:00 PM to 1:30 PM (Soup Kitchen),1:00 PM - 3:45 PM; 6:00 PM - 7:30 PM,1:00 PM - 3:45 PM,1:00 PM - 3:45 PM; 6:00 PM - 7:30 PM,1:00 PM - 3:45 PM,1:00 PM - 3:45 PM,,
Mount Ephraim Baptist Church,2201 W. Tioga St.,Philadelphia,19140,(215) 226-2720,,,,,,,9:00 AM - 1:00 PM,"Pantry, 2nd Saturday."
Montgomery County Family Service Center (Catholic Social Services),353 E. Johnson Highway,Norristown,19401,(610) 279-7372,,9:00 AM - 11:00 AM,,,9:00 AM - 11:00 AM,,,ID and Proof of income required for all household members
West Chester Food Cupboard,545 E. Gay St.,West Chester,19380,(610) 344-3175,,,9:30-11:30am and 2-4pm,2-7pm,9:30-11:30am and 2-4pm,,9:30-11:30am,"Choice pantry, serves income-eligible West Chester residents, once every 30 days max. Proof of address required."
Open Door Ministry (Church of the Nazarene),350 Main Street,Royersford,19468,(610) 948-4818,,,,,12:00 - 4:00 PM (last Thurs of month: 4-7 PM),,,
Canaan Family Life Center,304 W. School House Ln.,Phila,19144,,,,10am - 12pm,,10am - 12pm,,,"Bring photo ID, SocSec cards for all household members, proof of income. One visit every 30 days max."
Madeira Family Center,2123 Gratz St.,Philadelphia,19121,(215) 765-3874,,10:00 AM - 3:00 PM,10:00 AM - 3:00 PM,10:00 AM - 3:00 PM,10:00 AM - 3:00 PM,10:00 AM - 3:00 PM,,Must call first; referral required.
Delaware County Family Service Center - Chester (Catholic Social Services),130 East 7th Street,Chester,19013,(610) 876-7101,,8:30 A.M.? 4:30 P.M.,8:30 A.M.? 4:30 P.M.,8:30 A.M.? 4:30 P.M.,8:30 A.M.? 4:30 P.M.,8:30 A.M.? 4:30 P.M.,,Thursday-baby cupboard
Zion Hill Memorial Baptist Church,2702 Ellsworth Street,Philadelphia,19146,(215) 336-8111,,,9:00 AM - 11:00 AM,,,9:00 AM - 11:00 AM,,
Christ's Presbyterian Church,1020 S. 10th Street,Philadelphia,19147,(215) 389-2281,12:00 PM - 2:00 PM,,,,,,,
The Vietnam Hung Vuong Assoc.,930-940 S. 8th Street,Philadelphia,19147,(215) 592-6538,,10:30 AM - 2:30 PM,10:30 AM - 2:30 PM,10:30 AM - 2:30 PM,10:30 AM - 2:30 PM,10:30 AM - 2:30 PM,,"Coordinators speak primarily Vietnamese. Program is for members, but may be able to provide food in emergency situations."
Waters Memorial Community Inc.,609 South Clifton Street,Philadelphia,19147,(215) 923-4056,,,,3-5pm (every 3rd week of the month),,,,Food pantry
Center for Social Responsibility (Mitzvah Food Project),2100 Arch Street,Philadelphia,19103,(215) 832-0831,,,,,4:00 PM - 5:00 PM,,,1st and 3rd Thursday of the month. Accepts emergency calls.
United Communities Southeast Philadelphia,2029 S. 8th Street,Philadelphia,19148,(215) 468-6111,,1:00 -3:00 PM,,1:00 -3:00 PM,,1:00 -3:00 PM,,"Need a referral, ID & proof of address, though all zips served. Can only visit once every 90 days."
Eastwick United Methodist Church,8321 Lindbergh Blvd,Philadelphia,19153,(215) 365-1810,,12:30 - 1:30 PM,,10:00 AM - 1:00 PM,,,,"Food pantry. Serves ZIPcodes 19153, 19143, 19142"
Community Church Of God,4201 Parrish Street,Philadelphia,19104,(215) 878-0220,,,,,,,11:30 AM - 1:00 PM 4th Saturday of the month,
First African Presbyterian Church,4159 W. Girard Ave.,Philadelphia,19104,(215) 477-3100,,9:00 AM - 12:00 PM,,,,,,
"Grace Lutheran Church, Inc.",36th Street and Haverford Avenue,Philadelphia,19104,(215) 222-3570,,10:00 AM -1:30 PM,10:00 AM - 1:30 PM,10:00 AM - 1:30 PM,9:00 AM - 12:00 PM,,,
Bucks County Family Service Center (Catholic Social Services),100 Levittown Pky,Levittown,19054,(215) 945-2550,,,,,,,,By appointment
Chester County Family Service Center - Coatesville (Catholic Social Services),605 E. Lincoln Highway,Coatesville,19320,(610) 344-7028,,8:30 A.M.? 4:30 P.M.,8:30 A.M.? 4:30 P.M.,8:30 A.M.? 4:30 P.M.,8:30 A.M.? 4:30 P.M.,8:30 A.M.? 4:30 P.M.,,
The Light House,152 W Lehigh Avenue,Philadelphia,19133,(215) 425-7800,,,7:30 AM,,7:30 AM,,,"Clients arrive at 7:30 AM to fill out paperwork, then return to pick up food at 9:30 AM. Must have social security cards for every person you are receiving food for, plus proof of address and photo ID for the person picking up the food."
St. Martin De Porres,2340 W. Lehigh Avenue,Philadelphia,19132,(215) 225-2127,,,10:00 AM - 2:30 PM,10:00 AM - 2:30 PM,10:00 AM - 2:30 PM,,,Need referral from CAO or legislative rep.
Take A Sistah To Lunch,28th & Thompson Sts.,Philadelphia,19333,(610) 772-0686,,,,,,,12:00 PM - 2:00 PM,"Usually 3rd Sat of the month, located inside the firehouse."
The House Of Prayer,2327 West Somerset Street,Philadelphia,19132,(215) 225-0425,,,,,,,12:00 PM - 2:00 PM,Food pantry.
"Children's Mission, Inc.",2200 Germantown Avenue,Philadelphia,19133,(215) 236-9930,10:00 AM - 11:00 AM (Breakfast),,,5:30 PM - 6:00 PM (Dinner),,,2:00 PM - 4:00 PM,Open on the second Saturday of the month.
Congreso de Latinos Unidos,3439 N. Hutchinson,Philadelphia,19133,(215) 763-8870,,8:30am-11am,8:30am-11am,8:30am-11am,8:30am-11am,8:30am-11am,,Not open to the public.
Father's House of Prayer,3040-44 Germantown Avenue,Philadelphia,19133,(215) 225-3530,,,,,,2:30 PM - 4:30 PM,3:00 PM - 5:00 PM,
Grupo Cristiano De Entrenamiento,2719 N. Reese Street,Philadelphia,19133,(215) 430-0414,,,2:00 PM - 4:00 PM,,,2:00 PM - 4:00 PM,,
Hope Prison Ministries,508 W Cumberland Street,Philadelphia,19133,(215) 393-7650,,,,,,12:00 PM - 2:00 PM,1:00 PM - 5:00 PM Every Second Saturday,
Iglesia Sol De Justicia,901 W. Lehigh Avenue,Philadelphia,19133,(267) 825-0318,,,,11:00 AM - 3:00 PM,1:00 PM - 4:00 PM,,,
Moorish Science Temple Of America,2259 N. 5th St,Philadelphia,19133,(214) 939-3584,,,,,,,1:30pm-4:30pm (second or third week),Open either the second or third Saturday of the month.
Morris Chapel,2701 N. 12th St.,Philadelphia,19133,(215) 223-4046,,,8:00 AM-12 noon (1st and 3rd week of month),,,,,Open first and third week of month. Call for emergencies.
Neighborhood Action Bureau,2565 Germantown Avenue,Philadelphia,19133,(215) 226-1486,,9:00 AM - 1:00 PM,,9:00 AM - 1:00 PM,9:00 AM - 1:00 PM,,,
Operation 2nd Chance,507 West York Street,Philadelphia,19133,(215) 939-7866,,9:00 AM - 5:00 PM,,9:00 AM - 5:00 PM,,,,
Union Temple Baptist Church,2610 Howard Street,Philadelphia,19133,(215) 739-4446,1-3pm (second week of month-soup kitchen),,,,,,,Soup kitchen
Christ Bible Fellowship Church of Philadelphia,1921-25 E. Venango Street,Philadelphia,19134,(215) 300-4917,,,,,,,10:00 AM - 12:00 PM (third Saturday only),Serves only 19134 ZIP Code. Open only third Saturday of the month.
Community Women's Edu Project,2801 Frankford Avenue,Philadelphia,19134,(215) 426-2200,,,12:00 PM - Onwards,,,,,Client should call and confirm if there is food available.
Richard & Friends United In The Community,1916 E. Venengo Street,Philadelphia,19134,(267) 505-4451,,3:00 PM - 5:00 PM or 6PM,Emergency,3:00PM - 5:00PM,3:00PM - 5:00PM,3:00PM - 5:00PM,,Referral required
St. Joan of Arc Church,2025 E. Atlantic Street,Philadelphia,19134,(215) 535-4641,,,9:30 AM - 12:30 PM,,9:30 AM - 12:30 PM,,,Call for appointment. Bring ID. Need to be in a 34 zipcod and bring proof of residence with some sort of bill
St. Phillip's UMC,718 East Tioga Street,Philadelphia,19134,(215) 634-5222,,,,11:30 AM - 1:00 PM (soup kitchen),,,,
The Simple Way,3234 Potter Street,Philadelphia,19134,(215) 423-3598,,Signatures at 1:30 PM; Food at 2:30 PM,,,,,,ID proving address required. Only first 30 families. Willing to serve undocumented persons.
Abyssinian Baptist Church,4202 Germantown Avenue,Philadelphia,19140,(215) 324-1981,,,,,10:00 AM - 2:00 PM (varies),,,Thursday hours vary. Call ahead.
Bridgeway Inc,1722 W. Ontario Street,Philadelphia,19140,(215) 226-1983,,,,,5:00 PM - 6:15 PM,,,No restrictions
Catholic Social Services (Casa Del Carmen),4400 North Reese Street,Philadelphia,19140,(215) 329-5660,,8:30 AM - 1:45 PM,,8:30 AM - 1:45 PM,,,,"Service 19120, 19133, 19140. Other zips need referral, bring ID"
East Bethel Baptist Church,1329 W. Erie Avenue,Philadelphia,19140,(215) 226-6738,,,,,,,12:00 PM - 2:00 PM,
Fellowship Greater Jehovah Baptist Church,3314 Germantown Avenue,Philadelphia,19140,,,,,9:00 AM - 11:00 AM 2nd Wdenesday,,,,
First Redemption Church,4400 North Broad Street,Philadelphia,19140,(215) 457-5430,,,,,,,10:00 AM - 2:00 PM,
Ford Memorial Temple Inc,4031 Germantown Avenue,Philadelphia,19140,(215) 225-5069,,,,,,,8:30 AM - 11:30 AM (second week of the month),Open every second Saturday. Call for emergencies.
Harold O. Davis Memorial Baptist Church,4500 N. 10th Street,Philadelphia,19140,(215) 324-1031,,,,11:00 AM - 1:00 PM (pantry and soup kitchen),,,,Food pantry and soup kitchen.
Hunting Park NAC,3760 Delhi Street,Philadelphia,19140,(215) 225-5560,,,2:00 PM,,,,,Major food distribution every Tuesday at 2pm. Call Ahead.
Kitchen Of Love,1536 Wadsworth Ave.,Philadelphia,19150,(215) 200-8256,,,,,9:00am-11:00am,9:00am-11:00am,,"ID required. Open to all clients, once every other week. New address, located behind Rep. Parker's office."
Memorial Tabernacle Baptist Church,2249 W. Hunting Park Ave,Philadelphia,19140,(215) 229-5060,,10:00 AM - 2:00 PM,,10:00 AM - 2:00 PM,,,,
Nicetown C.D.C.,4414 Germantown Avenue,Philadelphia,19140,(215) 324-9772,,,,,1:00 PM,,,3rd Thu of month. ID required & must return re-usable bag.
Ralston Mercy Douglass House,3817 Market Street,Philadelphia,19104,(215) 382-5110,,8:30 AM - 4:30 PM,8:30 AM - 4:30 PM,8:30 AM - 4:30 PM,8:30 AM - 4:30 PM,8:30 AM - 4:30 PM,,Very strict on IDs
St. Ignatius Of Loyola Outreach,636 N. 43rd Street,Philadelphia,19104,(215) 386-5065,,,10:00 AM - 12:00 PM,,,,,
Greater Exodus Baptist Church - People for People,714 North Broad Street,Philadelphia,19130,(215) 235-1394,,10:00 AM - 1:00 PM,10:00 AM - 1:00 PM,10:00 AM - 1:00 PM,,10:00 AM - 1:00 PM,,
Holy Temple Church,1702-06 Fairmount Avenue,Philadelphia,19130,(215) 763-2338,1:30 PM - 2:30 PM,,,,,,10:00 AM - 11:00 AM,
Second Pilgrim Baptist Church,854-60 N. 15th St.,Philadelphia,19130,(215) 879-3417,,,,,5:00 PM - 6:00 PM,,,
Temple of Divine Love Church,1518-20 W. Girard Avenue,Philadelphia,19130,(215) 765-4957,,,1:00 PM - 3:00 PM,,,,,
Trinity Baptist Church,2702 W Poplar Street,Philadelphia,19130,(215) 235-0419,,,,,,,9:00 AM - 10:00 AM,
United Methodist Neighbors,804 N. Broad Street,Philadelphia,19130,(215) 236-0304,,10:00AM - 2:30PM,10:00 AM - 2:30 PM,,10:00 AM - 2:30 PM (bag lunch at noon),,,Referral required
Deliverance Evangelistic Church,2001 West Lehigh Avenue,Philadelphia,19132,(215) 226-7600,,,2:00PM - 5:00PM,,2:00PM - 5:00PM,,,ID required
Faithful Temple Evangelistic Deliverance Church,3416-18 W. Allegheny Avenue,Philadelphia,19132,(267) 312-5732,3-4pm (Soup Kitchen),,,11:00 AM - 1:00PM,,,,Food pantry open 3rd Wed of the month only. Call for emergencies.
First Church Worship Center (Safe Haven),2509 N. 30th St.,Philadelphia,19132,(215) 229-3608,,,"12:00PM - 2:00PM (2nd wk, food pantry)",,"12:00PM - 1:30PM (4th wk, soup kitchen)",,,
Gather The People House,1429 W. Clearfield St.,Philadelphia,19132,(215) 424-6381,,,,1:00 PM - 3:00 PM,,,,
Geiger Memorial Brethren,2543 W Lehigh Avenue,Philadelphia,19132,(215) 229-2967,8:30 AM hot breakfast,,10:00 AM - 3:00 PM,10:00 AM - 3:00 PM,,,,"Food distributed beginning either Tuesday or Wednesday, or both days if there is enough."
James Spring Memorial Baptist Church,1845 W. Huntingdon Street,Philadelphia,19132,(215) 227-4214,,12:00 PM - 3:00 PM,,12:00 PM - 3:00 PM,,,,
Jones Memorial Church,3050 North 22nd Street,Philadelphia,19132,(215) 729-2373,,1:00 PM - 3:00 PM,,,,,,Open the second week of the month
Jubilee Commandment Keepers Church,2440 N. 15th. Street,Philadelphia,19132,,,,,5:00 PM - 7:00 PM,,,2:00 PM - 4:00 PM,
Morning Star Church Of God In Christ,2326 N 31st Street,Philadelphia,19132,(215) 236-8965,,3:00 PM - 6:00 PM,3:00 PM - 6:00 PM,,3:00 PM - 6:00 PM,3:00 PM - 6:00 PM,,Open the second and third weeks of the month. Referral required.
North Penn Baptist Church,2419-2423 N 27th Street,Philadelphia,19132,(215) 228-5822,,,,,,,9:00 AM - 11:00 AM (3rd Sat of the month),ID required
North Providence Baptist Church,2909 North 8th Street,Philadelphia,19132,(215) 228-4161,,,6:00 PM - 8:00 PM,,,,,Closed May through September.
Redeem Baptist Church,2339 N. 31st Street,Philadelphia,19132,(215) 227-4574,,,,,,8:30 AM - 12:30 PM,,Food pantry. Open the third Friday of the month.
Greater Elijah Brown Memorial,744 N. 37th Street,Philadelphia,19104,(215) 386-9954,,,10:00 AM - 12:00 PM,,,,,
"Intercultural Family Services, Inc.",4225 Chestnut Street,Philadelphia,19104,(215) 386-1298,,9:00 AM - 5:00 PM,9:00 AM - 5:00 PM,9:00 AM - 5:00 PM,9:00 AM - 5:00 PM,9:00 AM - 5:00 PM,,"Requires agency referral, and two forms of ID."
Interfaith Food Cupboard,3600 Baring Street,Philadelphia,19104,(215) 222-7606,,,,,,,9:30 AM - 11:00 AM,Serves only 19104 (unless and emergency).
Lombard Central Presbyterian Church,4201 Powelton Avenue,Philadelphia,19104,(215) 222-3044,,,,,8:00 am - 11:00 am,8:00 am - 11:00 am,,Soup kitchen. Closed in July and August.
Millcreek Baptist Church,641 N. Preston Street,Philadelphia,19104,(215) 386-2989,,,10:00 AM - 12:00 PM,,,,,Food pantry. Distributes food every 2nd Tuesday of the month.
Mt. Zion Holy Church,4110 Haverford Avenue,Philadelphia,19104,(215) 349-6734,1:30 PM - 3:00 PM 2nd Sunday,,,1:00 PM - 3:00 PM 3rd Wednesday,,,,
People's Emergency Center,3939 Warren Street,Philadelphia,19104,(215) 382-7522,,,,,,,11:00AM - 4:00PM,ID required + ss cards for children
Salvation Army - KROC,4200 Wissahickon Ave.,Philadelphia,19129,(215) 558-1517,,1:00 AM - 3:00 PM,1:00 AM - 3:00 PM,1:00 AM - 3:00 PM,1:00 AM - 3:00 PM,1:00 AM - 3:00 PM,,"Only zips 19111, 19125, 19129, 19133, 19134, 19138, 19140, 19144, 19150, 19154; proof of emergency, referral required (T/TH only until 1/1/12, then M-F)"
Church of the Annunciation - The Food Cupboard,324 Carpenter Lane,Phila,19119,,,,10:00 AM - 12:00 PM,,,,,ID & SS cards for household members; self declared income. Can only visit once every 30 days.
Grace Evangelical Lutheran Church,3529 Haverford Avenue,Philadelphia,19104,(215) 222-3570,,10:00am-1:30pm(emergencies only)c,10:00am-1:30pm(emergencies only),10:00am-1:30pm(emergencies only),Open 9 a.m.,,,Call for emergencies.
Star of Hope Baptist Church,7212 Keystone St.,Philadelphia,19135,(215) 332-2067 ; 215-333-2289,,,10 a.m.-2 p.m.,,,,,Open weekly
Chester Eastside Ministries,9th Street and Potter Street,Chester,19016,(610) 872-4812,,10:00 AM - 12:00 PM,,,,10:00 AM - 12:00 PM,,
Chester County Family Service Center - West Chester (Catholic Social Services),125 N. Darlington Street,West Chester,19380,(610) 344-7028,,8:30 A.M.? 4:30 P.M.,8:30 A.M.? 4:30 P.M.,8:30 A.M.? 4:30 P.M.,8:30 A.M.? 4:30 P.M.,8:30 A.M.? 4:30 P.M.,,
St. Agnes Day Room,233 West Gay Street,West Chester,19380,(610) 429-0697,,9:00 AM - 3:00 PM,9:00 AM - 3:00 PM,9:00 AM - 3:00 PM,9:00 AM - 3:00 PM,9:00 AM - 3:00 PM,,
Chester County Family Service Center - West Grove (Catholic Social Services),105 Prospect Avenue,West Grove,19390,(610) 869-6500,,8:30 A.M.? 4:30 P.M.,8:30 A.M.? 4:30 P.M.,8:30 A.M.? 4:30 P.M.,8:30 A.M.? 4:30 P.M.,8:30 A.M.? 4:30 P.M.,,
St. Michael's Lutheran Church,,,19119,,,,,,,,11:00 AM - 1:00 PM (Community Meal),No restrictions
University Lutheran Church of the Incarnation,3637 Chestnut Street,Philadelphia,19104,(215) 387-2885,,,5:00PM - 6:00PM,,,,,Meal for persons with HIV/AIDS
Bible Way Baptist Church,1323 N. 52nd Street,Philadelphia,19131,(215) 879-9953,,,8:30 AM - 2:00 PM lunch,,,,,Soup kitchen.
Camphor Memorial United Methodist Church,5620 Wyalusing Avenue,Philadelphia,19131,(215) 747-2600,,,10:00 AM - 11:30 PM,,,,,"Only serve clients in 19139, 19131, 19151 Photo ID required"
Carroll Park Community Council,5218 Master Street,Philadelphia,19131,(215) 877-1157,,4:00PM - 7:00PM 2nd/4th Mon of the month,,,,,,
Millennium Baptist Church,1630 N. 52nd Street,Philadelphia,19131,(215) 877-1198,,,,11:00 AM - 1:00 PM (3rd week of month),,,,Food pantry. Open the third week of the month. Referral required. Closed in July and August.
Parkside Association,5180 Viola Sreet,Philadelphia,19131,(215) 877-1198,,,,,2:00 PM - 4:00 PM,,,"Food pantry. Open every first and third Thursday, referrals required. Will provide emergency food on weekdays (with referral)."
Resurrection Baptist Church,1610 N. 54th Street,Philadelphia,19131,(215) 473-9427,,,11:00 AM - 12:45 PM Pantry,,12:00 PM - 1:00 PM Meal,,,"Pantry on Tuesday (serves only 19131), soup kitchen on Thursday."
St. Philip's Lutheran Church,5210 Wyalusing Avenue,Philadelphia,19131,(215) 878-2911,,,,,,,9:00 AM - 12:00 PM (only 2nd Saturday),Food pantry. Open the second Saturday of the month.
Truth Memorial Baptist Church,1540 N. 56th St.,Philadelphia,19131,(215) 477-3105,,,,7:30 AM - 12:00 PM,,,,
59th Street Baptist Church,5901 Spruce Street,Philadelphia,19143,(215) 472-7532,,,,,9:30 AM - 11:45 AM,,,Open the first and second week of the month.
"Bundy House, Inc.",5700 Walnut Street,Philadelphia,19139,(215) 662-0607,,,1:00 PM - 3:00 PM,,,4:00 PM - 6:00 PM,,
City Of Conquerors,11 South 63rd Street,Philadelphia,19139,(215) 471-3985,,,,,10:00 AM - 4:00 PM,,,
Eben-ezer Mission,6135 Market Street,Philadelphia,19139,(267) 970-5869,,,,,,8am - 1:30pm,,
Emmanuel Ame Church,5917 Chestnut Street,Philadelphia,19139,(215) 549-2428,,,10:00 AM - 12:00 PM,,10:00 AM - 12:00 PM,,,
Holy Temple of the Lord and Savior Jesus Christ,5116 Market Street,Philadelphia,19139,(215) 474-7656,,4:00 PM - 6:00 PM,,,,,,
Mesha Church Of Deliverance,26 S. 57th Street,Philadelphia,19139,(215) 474-4476,,,11:00 AM - 2:00 PM,,,,,
Monumental Baptist Church,50th and Locust St.,Philadelphia,19139,(215) 747-1414,,,,12-1pm,,,,Soup kitchen. No referrals needed.
Mount Carmel Baptist Church,5732-34 Race Street,Philadelphia,19139,(215) 476-5320,,,,9:00 AM - 11:00 AM,,,9:00 AM - 12:00 AM,Food pantry. Referral from state rep. required. Serves only 19139
New Birthing Worship Center,5949-51 Spruce Street,Philadelphia,19139,(215) 476-3605,,,10:00 AM - 2:00 PM,10:00 AM - 2:00 PM,10:00 AM - 2:00 PM,10:00 AM - 2:00 PM,,
Our Lady of Blessed Sacrament,339 N. 63rd St,Philadelphia,19139,(215) 476-6511,,,,,9:30am - 12pm,,,
Sanctuary Church Of The Open Door,5923-41 Walnut Street,Philadelphia,19139,(215) 748-6510,,,,,,,"9:00 AM - 12:00 PM (3rd Sat, food pantry)",Food pantry. Only 19139 zip or emergencies.
Tabernacle Lutheran Church,5843 Spruce Street,Philadelphia,19139,(215) 748-5533,,,,10:00 AM - 1:00 PM,,,,
Zion Hill Baptist Church,5301 Spruce Street,Philadelphia,19139,(215) 472-4747,,,9:30 AM pantry opens,,,,,Food distribution every other week.
Zion Pentecostal Community Develop. Corp.,6055-57 Vine Street,Philadelphia,19139,(215) 431-7291,,,,,10:00 AM - 12:00 PM,,10:00 AM - 12:00 PM,
Allen A.M.E. Church,5911 Larchwood Avenue,Philadelphia,19143,(215) 476-6347,,10:00 AM - 12:00 PM,10:00 AM - 12:00 PM,10:00 AM - 12:00 PM,10:00 AM - 12:00 PM,,,Soup kitchen 11 a.m.-1 p.m. Tuesdays. Closed during the month of August. Call for emergencies.
Crusaders for Christ,1201 S. 47th Street,Philadelphia,19143,(215) 387-3014,2:30 PM - 4:00 PM every third,,,,,4:00 PM - 5:00 PM,,Open on Fridays every other week and on Sundays the third week of the month.
Faith Temple Pentecostal Church,5618 Kingsessing Ave,Philadelphia,19143,(610) 809-6224,,,10am - 12pm,,,,,
Grace Tabernacle Christian Church,1509 S. 52nd Street,Philadelphia,19143,(215) 724-8303,,,,1PM - 2PM meal; 2PM-3PM pantry,,,,
Helping Hands for the Hungry,525 South Cobbs Creek Parkway,Philadelphia,19143,(215) 747-3250,,,,,,,10a.m.-2pm,Open the last Saturday of the month (food pantry and soup kitchen). Call for emergencies.
Liberty Baptist Church Beanery,5944 Larchwood Avenue,Philadelphia,19143,(215) 748-2363,,10:30 AM - 1:00PM,,,,,,Soup kitchen. Closed from June until September.
Paradise Emmanuel Tabernacle Church,4704-08 Woodland Avenue,Philadelphia,19143,(215) 724-9050,,,,9:00 AM - 12:00 PM,,,9:00 AM - 12:00 PM,Only First Wed and Sat of month
People Helping People,6010 Cedar Avenue,Philadelphia,19143,(267) 290-9729,,9AM - 5PM,9AM - 5PM,9AM - 5PM,9AM - 5PM,9AM - 5PM,,
"Philadelphia Church International, Inc.",5541 Baltimore Avenue,Philadelphia,19143,(215) 476-3109,,,12:00 PM - 5:00 PM,,12:00 PM - 5:00 PM,12:00 PM - 5:00 PM,,
Sherwood Presbyterian Church,5543 Willows Avenue,Philadelphia,19143,(215) 747-2685,,,12:00 PM - 1:00 PM,,12:00 PM - 1:00 PM,,,Soup kitchen.
St. Cyprian Church,525 South 63rd Street,Philadelphia,19143,(215) 747-3250,,9:30 AM - 11:30 AM,,9:30 AM - 11:30 AM,,,,
Calvary Agape Outreach Services,6114 Haverford Avenue,Philadelphia,19151,(215) 472-3460,,10:00 AM - 1:00 PM,,10:00 AM - 11:45 PM,,,,"Soup kitchen open Wednesday, 12pm-1 pm.Serves ZIP codes 19131, 19139, 19151."
Calvin Presbyterian Church,1401 N. 60th Street,Philadelphia,19151,(215) 877-7711,,,,,11:00 AM - 1:00 PM,,,Food pantry.
Good Samaritan Baptist Church,6148-50 Lansdowne Avenue,Philadelphia,19151,(215) 877-7537,,,,9:00 AM - 1:00 PM,,10:00 AM - 12:00 PM,,Program requires referrals from a welfare office. Exceptions made for first visit only.
Masjidullah Community Development,7700 Ogontz Avenue,Philadelphia,19150,(215) 424-8022,,,,,,,8:00 AM-10:00 AM,"Last Sat of month. Distributes produce, whole grains, not processed foods. Delivers to homebound clients citywide. Relocating to Washington Ln location ~Jan 2014."
Southwest Philadelphia Family Service Center (Catholic Social Services),6214 Grays Avenue,Philadelphia,19142,(215) 724-8550,,,,10:00 AM - 12:00 PM,,10:00 AM - 12:00 PM,,"Individuals/families are able to obtain food every 30 days, they must present proof of address and photo ID."
Church Of The Living God,2135 S 61st Street,Philadelphia,19142,(215) 301-9925,,,,,,,10:00 AM - 12:00 PM,
Divine Mercy Parish,6667 Chester Avenue,Philadelphia,19142,(215) 727-8300,,,9:00 AM - 12:00 PM,9:00 AM - 12:00 PM,,,,
Korean Senior Citizens,6101 Rising Sun Avenue,Philadelphia,19111,(215) 698-2548,,,,,,,10:00 AM - 11:00 AM,
Mt. Zion Baptist Church of Germantown,41 W. Rittenhouse St.,Philadelphia,19144,(215) 844-7614,,,,12:00-1:00PM (Soup Kitchen),,,,
New Jerusalem Church,14 E Clapier St,Philadelphia,19144,(215) 844-7212,,,10:00 AM - 11:30 AM produce,,,1:00 PM - 3:00 PM hot lunch,,
Providence Baptist Church,87 E. Haines St.,Philadelphia,19144,(215) 844-0954,,,,,10:30 AM - 11:15 AM hot meal,,,"Saints Alive Lunch Program. All are welcome, no ID required. Also distributes clothing. (Closed holidays, e.g. Thanksgiving & day after Christmas in 2013.)"
Resources For Human Development,4700 Wissahickon Avenue,Philadelphia,19144-4248,(215) 951-0300,,8:00 AM - 5:00 PM,8:00 AM - 5:00 PM,8:00 AM - 5:00 PM,8:00 AM - 5:00 PM,8:00 AM - 5:00 PM,,
Second Macedonia Baptist Church,1301 W. Ruscomb Street,Philadelphia,19141,(215) 457-9750,,,,11:00 PM - 12:00 PM,2:00 PM (every 4th Tuesday),11:00 PM - 12:00 PM,,Bring ID. No zip code restriction.
St. Vincent De Paul (Face to Face),109 E. Price Street,Philadelphia,19144,(215) 438-7939,12:30-2:00pm Meal,9am-12pm Pantry; 12:30-2:00pm Meal,9AM-12PM Pantry,,,9am-12pm Pantry; 12:30-2:00pm Meal,12:30-2:00pm Meal,"Emergency food pantry operated by St. Vincent, ID required, 215-438-1514. Meals provided by Face to Face, no requirements, 215-438-7939."
Zion Hill C.O.G.I.C,529 E. Washington Lane,Philadelphia,19144,(215) 438-6300,,,11:00 AM - 12:30 PM,,,,,bi-weekly
Remnant Church of God,7708-12 Ogontz Avenue,Philadelphia,19150,(215) 924-2610,,,,3:00 PM - 5:00 PM,,,,Recommend arriving by 3pm.
Celestial Tabernacle HCOG,1263 26th Street,Philadelphia,19121,(215) 232-5863,,,8:00 AM - 11:00 AM,8:00 AM - 11:00 AM,8:00 AM - 11:00 AM,,,Need referral
Church Of The Advocate,2121 N. Gratz Street,Philadelphia,19121,(215) 236-0568,,12:00 PM - 2:00 PM,12:00 PM - 2:00 PM,12:00 PM - 2:00 PM,12:00 PM - 2:00 PM,12:00 PM - 2:00 PM,,Soup kitchen.
Cornerstone Baptist Church,2117 N. 33rd Street,Philadelphia,19121,(215) 763-8383,,,12:00 PM - 2:00 PM,,12:00 PM - 2:00 PM,,,
East Park Revitalization Alliance,1943 N. 33rd Street,Philadelphia,19121,(215) 235-6001,,4:00 PM -7:00 PM,,,4:00 PM - 7:00 PM,,,Also have feeding program T/TH at 3200 block of Clifford at Vernal Senior Center
Gibson Temple Baptist Church (Blessed to be a Blessing),2159 N. 28th Street,Philadelphia,19143-0474,(215) 605-1501,1PM - 2PM,,,6PM - 8PM,,,11am-12:30pm (3rd Saturday),Food pantry. Call for emergencies.
Golden Star Baptist Church,1635-39 N 27th Street,Philadelphia,19121,(215) 769-2235,9:00 AM - 3:00 PM,9:00 AM - 4:00 PM,9:00 AM - 4:00 PM,9:00 AM - 4:00 PM,9:00 AM - 4:00 PM,9:00 AM - 4:00 PM,12:00 PM - 3:00 PM Summer 06-08 09-08 only,
Haven Peniel Church,2301 Oxford Street,Philadelphia,19121,(215) 765-7119,,,"12-1:30PM (lunch), 1:30-3PM (food pantry)",9:00PM-2:00PM (food pantry),,,,"Soup kitchen open every Tuesday. Food pantry is open EITHER Tuesday OR Wednesday, not both. Call ahead."
Herbert Arlene Homes,1513 N. Bouvier Street,Philadelphia,19121,(215) 236-0306,,10:00 AM - 1:00 PM,,,,,10:00 AM - 1:00 PM,
Johnson Concerned Care Center,2229 West Thompson Street,Philadelphia,19121,(215) 763-1349,,10:00 AM - 2:00 PM,,10:00 AM - 2:00 PM,,10:00 AM - 2:00 PM,,
Jones Tabernacle A.M.E.,2106 N. Woodstock St.,Philadelphia,19121,(215) 236-3028,,,,,10:00 AM - 2:00 PM,,,"Open the third week of the month. For emergencies, call 267-258-8709"
Little Africa Plus Community Outreach,1521 West Norris Street,Philadelphia,19121,(215) 236-6672,,,20:00pm-3:00pm,,,,,
Morris Brown A.M.E. Church,1756 N. 25th Street,Philadelphia,19121,(215) 763-4707,,,,10:00 AM - 12:00 PM food pantry (usually 2nd week),12:00pm - 1 PM soup kitchen,,,Call for emergencies. Closed from June to September.
Mt. Olive Holy Temple,1469 N. Broad St.,Philadelphia,19121,(215) 765-3372,doors open at 12:15 PM (Feeding & pantry at 1PM),,doors open at 12:15 PM (feeding at 2:30),,,,,
New Jerusalem,2011 W. Norris St.,Philadelphia,19121,(215) 763-8806,,,,,,1:00 PM - 3:00 PM,,Emergency food is available 9am-5pm Monday through Friday; monthly senior boxes available (must apply)
New Mt. Zion,1501 N 20th Street,Philadelphia,19121,(215) 235-3820,,,,12:00 PM - 1:30 PM,,12:00 PM - 2:30 PM,,
New Salem Baptist Church,1721-23 N Croskey Street,Philadelphia,19121,(267) 231-2318,,,,,10:00 AM - 12:00 PM (3rd week of the month),,,Open third Thursday of month.
North Philadelphia SDA Church,1602 W Oxford Street,Philadelphia,19121,(215) 637-1074,12:00 PM - 2:00 PM as needed,,,11:00 AM - 1:00 PM,11:00 AM - 1:00 PM,,,
Praise The Living God Holiness Church,2016 N. 32nd St.,Philadelphia,19140,(215) 900-1009,,,,,2:00 PM to 5:00 PM,,,"Food pantry. Clients must bring an ID. Serves ZIPcodes 19121, 19122, 19132, and 19140."
St. Elizabeth Church,1845 N 23rd Street,Philadelphia,19121,(215) 235-3110 ext. 5611,,10:00 AM - 1:00 PM,10:00 AM - 1:00 PM,10:00 AM - 1:00 PM,10:00 AM - 1:00 PM,,,Project HOME affiliate. Referral required. OK to fax.
Wayland Temple Church,2500 W. Cecil B Moore Avenue,Philadelphia,19121,(215) 769-0243,,,10:00 AM - 1:00 PM,,10:00 AM - 1:00 PM,,,
Berean Presbyterian Care Closet,2101 North Broad Street,Philadelphia,19122,(215) 769-5683,,,,11:00 AM - 1:00 PM,,11:00 AM - 1:00 PM,"Community meal for all, last Sat of month 11am-4pm",Requires referral.
BM Oakley Memorial Temple Church,1535 N. 7th St.,Philadelphia,19122,(215) 235-5113,,,12:00 PM - 2:00 PM,,12:00 PM - 2:00 PM,,,"Soup kitchen open Tuesday, from 12pm-2 pm. Call for emergencies."
Bright Hope Baptist (Surviving to Thriving Ministry),1601 N. 12th Street,Philadelphia,19122,(215) 232-6004,,5:30-7pm (soup kitchen); 6:00 PM - 7:00 PM(pantry),5:30-7pm (soup kitchen); 6:00 PM - 7:00 PM(pantry),5:30-7pm (soup kitchen); 6:00 PM - 7:00 PM(pantry),5:30-7pm (soup kitchen); 6:00 PM - 7:00 PM(pantry),,,Soup kitchen and food distribution. Referral required to receive a bag of food. Closed in July and August.
Iglesie De Dios Pentecostal,1444 N.7th Street,Philadelphia,19122,(267) 709-8311,,,,11:00 AM - 1:00 PM,,,,
Lewis Temple,509 W Diamond St,Philadelphia,19122,,12:00 PM - 2:00 PM,,,12:00 PM - 2:00 PM,,,,
Living Waters United Church of Christ,6250 Loretto Ave.,Philadelphia,19111,(267) 250-1825,,5:00 PM - 6:00 PM,5:00 PM - 6:00 PM,,,,,Distributes food Monday or Tuesday of the second week of the month.
New Greater Straightway Baptist Church,1705 N 7th Street,Philadelphia,19122,(215) 978-4931,,,9:00 AM - 11:00 AM,,,,,
Temple Presbyterian Church,1300 N. 7th St.,Philadelphia,19122,(215) 232-9777,,,,11:00 AM - 1:30 PM,11:00 AM - 1:30 PM,,,Food pantry and soup kitchen.
Yorktown Community Development,1300 W. Jefferson Street,Philadelphia,19122,(215) 769-0225,,9:30am-2:30pm,9:30am-2:30pm,9:30am-2:30pm,9:30am-2:30pm,9:30am-2:30pm,,Referral required. Please bring your own bag.
Friends Neighborhood Guild,701 N. 8th St.,Philadelphia,19123,(215) 923-1544,,,,,11:00 AM - 1:00 PM (Every Third),,,
Helping Hand Rescue Mission,610 N. 6th St.,Philadelphia,19123,(215) 627-1656,line starts at 12:30,,,,,,,"Weekly lunch served on Sundays (limited capacity), phone is only answered on Thursday."
Zion Gardens Apartments,1101 Girard Avenue,Philadelphia,19123,(215) 235-3233,,,1:00 PM - 3:00 PM,,1:00 PM - 3:00 PM,,,
Cast Your Cares,2438 Kensington Ave.,Philadelphia,19125,(215) 634-7445,,,1PM - 3PM,1PM - 3PM,,,,Groceries. Call to make an appt. No restrictions
Philadelphia Brotherhood Rescue Mission,401 E. Girard Avenue,Philadelphia,19125,(215) 739-4517,,3:00PM - 5:00PM Food pantry,3:00PM - 5:00PM Food pantry,3:00PM - 5:00PM Food pantry,3:00PM - 5:00PM Food pantry,3:00PM - 5:00PM Food pantry,,"Referral required, Soup kitchen open Monday - Sat for Breakfast (6am), lunch(12pm) and dinner(4pm). Open Sun breakfast and dinner only."
St. Francis Inn,2441 Kensington Avenue,Philadelphia,19125,(215) 423-5845,11:30 AM - 1:00 PM,4:30 PM - 6:00 PM,10:00 AM - 11:00 AM & 4:30 PM - 6:00 PM,10:00 AM - 11:00 AM & 4:30 PM - 6:00 PM,10:00 AM - 11:00 AM & 4:30 PM - 6:00 PM,11:30 AM - 1:00 PM,11:30 AM - 1:00 PM,Soup kitchen.
St. Michael's Lutheran Church,E. Cumberland St. & Trenton Ave.,Philadelphia,19125,(215) 423-0792,,,,,"11AM-12PM 2nd & 4th, 6:15 PM-7:15 PM 1st &3rd&5th",,,Serves 19125 and 19134.
Baptist Women's Center,1428 Poplar Street,Philadelphia,19130,(215) 235-8070,,,,11:30 AM - 1:30 PM,,,,
Christ Our Redeemer F.W.Baptist Church,1708-10 Wylie Street,Philadelphia,19130,(267) 505-3592,,,,,,,11:00 AM - 1:00 PM Second & Fourth Saturday,
Klein JCC (Mitzvah Food Project),10100 Jamison Avenue,Philadelphia,19116,(215) 698-7300 x197,,,1:30 PM - 3:00 PM,,,,,
Somerton Interfaith Food Pantry,510 Somerton Avenue,Philadelphia,19116,(215) 673-1117,,9:30 AM - 12:00 PM,,9:30 AM - 12:00 PM,,9:30 AM - 12:00 PM,,
Campbell AME Church,1657 Kinsey Street,Philadelphia,19124,(215) 288-2748,9:30am-10am,,,12:00pm-2:00pm,,,,Food pantry and soup kitchen.
Faith Assembly of God,1926-40 Margaret St.,Philadelphia,19124,(215) 535-8581,,,"10:30 AM - 12:00 PM, 1:00 PM - 2:00 PM","10:30 AM - 12:00 PM, 1:00 PM - 2:00 PM + hot lunch","10:30 AM - 12:00 PM, 1:00 PM - 2:00 PM + hot lunch",,,
Keep Community Development,1901 Harrison Street,Philadelphia,19124,(215) 533-3021,,,5:00 PM - 6:00 PM food pantry,,,,12:00 PM - 2:00 PM food pantry & soup kitchen,
Second Baptist Church of Frankford,1801 Meadow Street,Philadelphia,19124,(215) 533-6222,,10:00 AM - 1:00 PM,,10:00 AM - 1:00 PM,,10:00 AM - 1:00 PM,,Serves 19124 only. 1 bag per household per month. Bring ID.
Temple Of Faith Community Church,1532-42 Sellers Street,Philadelphia,19124,(215) 744-7910,,,5:30 PM - 7:00 PM,,5:30 PM - 7:00 PM,,,
Whitehall Tenant Council,1824-26 Foulkrod Street,Philadelphia,19124,(215) 684-5977,,10:00 AM - 3:00 PM,10:00 AM - 3:00 PM,10:00 AM - 3:00 PM,10:00 AM - 3:00 PM,10:00 AM - 3:00 PM,,
Bickley New Beginning United Methodist Church,6239 N. 6th Street,Philadelphia,19126,(215) 924-5898,9:00 AM - 3:00 PM,,,4:00 PM - 7:00 PM,,,9:00 AM - 1:00 PM,
"Grace Temple Church, Inc.",6735 North 16th Street,Philadelphia,19126,(215) 924-7675,,"must call for appointment, have no regular hours",,,,,,
Refuge Evangelical Baptist Church,1100 Oak Ln.,Philadelphia,19126,(215) 224-2024,,,10am - 2pm,,,,,call first; must have id and fill out paperwork
Centre D'adoration Chretienne,4520 Benner Street,Philadelphia,19135,(215) 548-3788,,,7:00 PM - 9:00 PM,,7:00 PM - 9:00 PM,,,
Feast of Justice,3101 Tyson Avenue,Philadelphia,19149,(215) 268-3510,,,9:00 AM - 11:30 AM (breakfast every 3rd),,4:00 PM - 6:00PM (fresh produce),9:00 AM - 11:30 AM,2:00 PM - 4:30 PM,Carol Kelly: carolkelly56@gmail.com. Hot breakfast every third Tuesday. Need last 4 digits of social security number.
Bethel Fellowship Franklin Mills,903 Franklin Mills Circle,Philadelphia,19154,(215) 824-3000,,10AM-1PM,10AM-1PM,2PM-5PM,10AM-1PM,,,MUST CALL FIRST. Clients can get food every 14 days.
Holy Redeemer Nazareth,12265 Townsand Road,Philadelphia,19154,(215) 856-1370,,,9:30 AM - 11:00 AM,9:30 AM - 11:00 AM,9:30 AM - 11:00 AM,,,"Food pantry. By appointment only. Serves 19111, 19114, 19115, 19116, 19120, 19135, 19136, 19137, 19149, 19152, 19154. Closed Thanksgiving Day through Dec. 1."
Northeast Philadelphia Family Service Center (Catholic Social Services),7340 Jackson Street,Philadelphia,19136,(215) 624-5920,,,,9:00 AM - 12:00 PM,,9:00 AM - 12:00 PM,,"Households throughout Phila. can obtain food once every 30 days, with proof of address, photo ID for all adults & Soc Sec cards for children."
Holmecrest Homes Community,8133 Erdrick Street,Philadelphia,19136,(215) 684-5965,,9:00 AM - 1:00 PM,9:00 AM - 3:00 PM,9:00 AM - 12:00 PM,9:00 AM - 12:30 PM,9:00 AM - 12:30 PM,,Only serves residents of Holmecrest homes
Living Word Church,7916 Frankford Avenue,Philadelphia,19136,(267) 254-3559,,,,,9:30 AM - 11:30 AM,,,Serves only 19136. Photo ID required.
G. P. Asian Social Services,4943 N 5th Street,Philadelphia,19120,(215) 456-1663,,,9:00 AM - 4:30 PM,9:00 AM - 4:30 PM,9:00 AM - 4:30 PM,9:00 AM - 4:30 PM,9:00 AM - 4:30 PM,Food Pantry: 2nd and 4th Tues beginning at 9:00 am. Bring 2 bags and I.D.
Incarnation Of Our Lord,5105 North 5th Street,Philadelphia,19120,(215) 284-7959,,,,1:00 PM - 3:00 PM,9:00 AM - 12:00 PM,,,
Jerusalem French Church S.D.A.,537 E. Wyoming Avenue,Philadelphia,19120,(215) 324-0374,10:00 AM - 12:00 PM,,,6:00 PM - 7:30 PM,,,,
St. Paul's Evangelical Lutheran Church,5900 North 5th Street,Philadelphia,19120,(215) 424-4800,,9:00 AM - 12:00 PM,,9:00 AM - 12:00 PM,,,,Serves 19120. Others in emergencies.
Tabernaculo De La Fe Assemblies,5428 N. Front Street,Philadelphia,19120,(215) 301-4229,3:00 PM - 6:30 PM,,,8:30 AM - 2:30 PM,8:30 AM - 2:30 PM,8:30 AM - 2:30 PM,10:00 AM - 1:00 PM,
Triumphant Faith International Worship Center,5316 Rising Sun Avenue,Philadelphia,19120,(215) 324-7376,,,,10-12pm (food pantry every week),,,10:00 AM - 12:00 PM (Food pantry every 3rd),Food pantry.
Emlen Arms,6733 Emlen Avenue,Philadelphia,19119,(215) 684-8285,,11:00 AM - 4:00 PM,,11:00 AM - 4:00 PM,,11:00 AM - 4:00 PM,,
Germantown SDA Church,200 E Clivden Street,Philadelphia,19119,(215) 849-6967,,,,,12:00 PM - 2:00 PM,,Open 6:30pm,Food pantry. Closed in July.
North Light Community Center,175 Green Lane,Philadelphia,19127,(215) 483-4800,,1:00 PM - 3:00 PM,,,,1:00 PM - 3:00 PM,,"Serves anyone who lives in, works in, has a kid who attends school in, or was referred by another agency in the 19127, 19128, 19129 zipcodes"
Drug Task Force Ministry,3252 N. Etting Street,Philadelphia,19129,(215) 385-0738,,,,10:00 AM - 2:00 PM,,,10:00 AM - 2:00 PM,ID Requested
Heritage Grassroots Leadership Institute,1901 W. Girard Ave @ Berean Institute,Philadelphia,19130,(215) 951-0330,,,10:00AM - 12:00PM,,,,,"Seniors only, delivery 3rd tuesday of the month. Produce distribution for anyone every tuesday.,"
Christian Church Of Divine Truth,6065 E Wister St,Philadelphia,19138,(215) 849-4118,12:30 PM - 2:30 PM,,7:30 PM - 9:00 PM,,,,,Open either the third or fourth Saturday of the month.
Corinthians Emergency Food,6113 North 21st Street,Philadelphia,19138,(215) 848-1278,,9:00 AM - 11:00 AM,9:00 AM - 11:00 AM,,,,,
Haitian Evangelistic Baptist,814 East Chelten Avenue,Philadelphia,19138,(215) 842-3782,,,5:30 PM - 9:00 PM,,,,1:00 PM - 3:00 PM,
New Era Baptist Church,6618 Wyncote Avenue,Philadelphia,19138,(215) 927-4345,,,,,9:00 AM - 11:00 AM,,,
St. Benedict's,1940 Medary Ave,Philadelphia,19138,(215) 924-4401,,10:00 AM - 12:00 PM,,,,10:00 AM - 12:00 PM,,"Must have ID and live in 19138, 19141 or 19126"
Strictly For Christ Ministries,2169 66th Avenue,Philadelphia,19138,(267) 231-0004,,,5:00 PM - 7:00 PM,,,,3:00 PM - 5:00 PM,
Giving of Self Partnership,6101 Limekiln Picke,Philadelphia,19141,(215) 927-6100,,12:00 PM - 4:00 PM,10:00 AM -12:30 PM and 1:30 PM - 4:00 PM,10:00 AM -12:30 PM and 1:30 PM - 4:00 PM,,10:00 AM -12:30 PM and 1:30 PM - 4:00 PM,,Must bring ID and SS card or Birth certificate for all children
Mount Carmel United Methodist Church,5900 Park Avenue,Philadelphia,19141,(215) 548-3426,,,,,,,9:00 AM - 11:00 AM,Food distribution 2nd Sat of the month. 2 IDs required. Referral on agency letterhead required for emergencies.
Safe Kids At Nicetown,4414 Germantown Avenue,Philadelphia,19141,(215) 224-0146,,9:00 AM - 11:00 AM,,,,9:00 AM - 11:00 AM,,
St. Mark's Lutheran Church,1420 W. Chelten Avenue,Philadelphia,19126,(215) 224-1145,,,10:00 AM - 2:00 PM (food pantry),,,,,Food Pantry
Truth Baptist Church,4666-4668 N. 15th Street,Philadelphia,19141,(215) 224-8426,,,9:30 AM onwards,,,,,Must live in 19140 or 19141. Call Ahead
Enon Tabernacle Baptist Church,230 W. Coulter Street,Philadelphia,19144,,,10:00 AM - 12:00 PM,,,10:00 AM - 12:00 PM,,,"Serves 19119, 19144. Call ahead"
Faith Community Development Corporation,108 E. Price Street,Philadelphia,19144,(215) 848-9660,,,,1:30PM - 2:00 PM,10:00 AM-1:00 PM,,,Call for emergencies.
Germantown Avenue Crisis Ministry (GACM),35 W. Chelten Avenue,Philadelphia,19144,(215) 843-2340,,,,,10:00 AM - 4:00 PM,,,"IDs for all household members, proof of address & income required. Residents of 19144, 19138, 19150, 19126, 19119 & 19118 can visit once every 30 days."
Grace Community Center Germantown,25-29 W. Johnson Street,Philadelphia,19144,(215) 848-2700,,10:00 AM - 1:00 PM,10:00 AM - 1:00 PM,10:00 AM - 1:00 PM,10:00 AM - 1:00 PM,10:00 AM - 1:00 PM,,"Priority goes to ZIP Codes 19144, 19119, 19126, 19150, 19138"
Holsey Temple Christian Methodist Episcopal Church? (Mary L. King Community Food Ministry),5305 Germantown Avenue,Philadelphia,19144,(215) 848-2210,9:00 AM - 10:00 AM hot breakfast,,11:00 AM - 1:00 PM hot meal,,,,,"Soup kitchen open to all zips. Sometimes has pantry food, then ID preferred."
Our Lady of Hope Tioga,5200 N. Broad Street,Philadelphia,19140,(215) 329-8100,,,,9:30 AM - 11:30 AM,9:30 AM - 11:30 AM,,,
Thankful Learning Center,3200-02 N 17th Street,Philadelphia,19140,(215) 226-5544,,,,,1:00 PM - 4:00 PM some walk ins,1:00 PM - 4:00 PM,,
The Word in Action,1539 W. Courtland Street,Philadelphia,19140,(215) 324-7665,,,11am-12noon & 1-3pm,11am-12noon & 1-3pm,11am-12noon & 1-3pm,11am-12noon & 1-3pm,,"Serves clients in zips 19140, 19141, 19138& 19124, once per month."
Triumph Baptist Church,1648 W. Hunting Park Avenue,Philadelphia,19140,(215) 228-8000,,,,9:00 AM - 3:00 PM,,,,
Victory Outreach Christian Ministry Two,3415 N. 2nd Street,Philadelphia,19140,(215) 426-5090,,,8:00 AM - 4:00 PM,,8:00 AM - 4:00 PM,,,
Zion Community Center,3601 N. Broad Street,Philadelphia,19140,(215) 223-8576,,,9:00 AM -11:30 AM,,,,,Arrive by 8:20am.
Beth Sholom Congregation (Mitzvah Food Project),8231 Old York Road,Elkins Park,19027,(215) 832-0509,,,,,,,,
Congregation Tifereth Israel of Lower Bucks County (Mitzvah Food Project),2909 Bristol Road,Bensalem,19020,(215) 832-0509,,,4:00 PM - 5:30 PM,,,,,
The First African Baptist Church,1608 Christian Street,Philadelphia,19146,(215) 735-1050,,,,,,,10:00 AM -12:00 PM (soup kitchen),Soup kitchen.
Grands as Parents Inc.,2200 N. Cleveland Street,Philadelphia,19132,(215) 236-5848,,,,,,10:00am-11:30am,,Call for emergencies.
,,,,,,,,,,,,
FoodResources_SheltrApp,,,,,,,,,,,,
"Copyright (c) 2000-2014 salesforce.com, inc. All rights reserved.",,,,,,,,,,,,
Confidential Information - Do Not Distribute,,,,,,,,,,,,
Generated By: Ronna Bolante 2/14/2014 1:44 PM,,,,,,,,,,,,
Greater Philadelphia Coalition Against Hunger,,,,,,,,,,,,